OBJECT_NAME,OBJECT_ID,EPOCH,MEAN_MOTION,ECCENTRICITY,INCLINATION,RA_OF_ASC_NODE,ARG_OF_PERICENTER,MEAN_ANOMALY,EPHEMERIS_TYPE,CLASSIFICATION_TYPE,NORAD_CAT_ID,ELEMENT_SET_NO,REV_AT_EPOCH,BSTAR,MEAN_MOTION_DOT,MEAN_MOTION_DDOT
SPAWAR-CAL-O,2018-099J,2024-08-14T02:17:06.118080,15.08512560,.0015747,97.5383,283.4401,123.7872,236.4859,0,U,43766,999,31129,.14382E-2,.22491E-3,0
CORVUS BC4,2018-099K,2024-08-14T03:15:37.261152,15.02892532,.0012239,97.5103,278.7012,138.4469,221.7689,0,U,43767,999,31109,.86888E-3,.11629E-3,0
AISTECHSAT 2,2018-099L,2024-08-13T10:04:14.797344,15.03753218,.0007622,97.5330,278.9584,97.7198,262.4893,0,U,43768,999,31072,.10894E-2,.14925E-3,0
FOX-1CLIFF (AO-95),2018-099N,2024-08-13T15:08:53.116512,15.07097031,.0014228,97.5421,283.2810,161.6186,198.5559,0,U,43770,999,31121,.14154E-2,.21283E-3,0
2018-099Q,2018-099Q,2024-08-13T17:57:02.994912,15.11920070,.0006122,97.5199,287.0948,79.0166,281.1753,0,U,43772,999,31141,.18158E-2,.31165E-3,0
RANGE-A,2018-099R,2024-08-14T02:27:24.054336,15.03203065,.0013654,97.4962,278.4894,134.8183,225.4156,0,U,43773,999,31113,.10045E-2,.13573E-3,0
HIBER-2,2018-099S,2024-08-13T21:29:58.156800,15.13906128,.001027,97.5394,288.6873,111.8709,248.3615,0,U,43774,999,31149,.18496E-2,.33593E-3,0
SPAWAR-CAL-R,2018-099U,2024-08-13T14:55:41.035008,15.00134266,.0018056,97.5112,278.1550,128.3696,231.9153,0,U,43776,999,31094,.79343E-3,.9885E-4,0
SPAWAR-CAL-OR,2018-099W,2024-08-14T02:32:09.260736,15.06281240,.0017675,97.4833,278.8789,128.6259,231.6554,0,U,43778,999,31084,.12646E-2,.18611E-3,0
MOVE-II,2018-099Y,2024-08-13T22:22:26.952960,15.19064322,.0007297,97.5168,289.4853,137.2411,222.9392,0,U,43780,999,31168,.22926E-2,.48302E-3,0
SNUSAT-2,2018-099AA,2024-08-14T03:29:36.590496,15.06150912,.0016156,97.5099,282.6186,104.8758,255.4260,0,U,43782,999,31129,.11573E-2,.16953E-3,0
KAZSTSAT,2018-099AB,2024-08-14T03:33:07.068672,14.96781430,.0008729,97.5226,275.9851,138.7419,221.4464,0,U,43783,999,31065,.47906E-3,.5432E-4,0
SNUGLITE,2018-099AC,2024-08-14T02:47:26.806272,15.07404566,.0005748,97.4908,281.9005,112.2879,247.8959,0,U,43784,999,31136,.1271E-2,.19224E-3,0
ORBWEAVER 2,2018-099AD,2024-08-14T04:12:03.647808,15.47877280,.0004947,97.5096,298.3810,68.2606,291.9170,0,U,43785,999,31190,.50585E-2,.272141E-2,0
ITASAT,2018-099AE,2024-08-13T13:58:09.540768,15.05293767,.0017772,97.5053,282.2470,154.2675,205.9440,0,U,43786,999,31120,.12509E-2,.17924E-3,0
KAZSCISAT-1,2018-099AF,2024-08-13T17:58:42.969216,15.17405165,.0007095,97.5025,286.2902,115.0462,245.1509,0,U,43787,999,31165,.22366E-2,.44906E-3,0
EAGLET-I,2018-099AJ,2024-08-13T14:54:21.652416,15.03623699,.0015232,97.5260,282.7746,130.7854,229.4696,0,U,43790,999,31090,.10912E-2,.14926E-3,0
ESEO,2018-099AL,2024-08-13T17:08:10.667904,15.00097351,.0011649,97.5178,279.3596,118.8273,241.4122,0,U,43792,999,31082,.60485E-3,.7497E-4,0
CSIM-FD,2018-099AM,2024-08-13T22:20:21.469920,15.18729626,.0012695,97.5262,291.2459,114.3834,245.8727,0,U,43793,999,31153,.21337E-2,.44556E-3,0
HAWK-B,2018-099AN,2024-08-14T03:26:30.189408,15.03850938,.0011638,97.4953,282.6409,87.9033,272.3526,0,U,43794,999,31134,.84729E-3,.11629E-3,0
ORBWEAVER 1,2018-099AP,2024-08-14T04:44:38.470272,15.62670938,.0005321,97.5228,303.2538,256.3223,103.7442,0,U,43795,999,31259,.54924E-2,.523311E-2,0
THEA,2018-099AQ,2024-08-13T21:34:01.544736,15.09330981,.0014324,97.5422,287.8792,118.8983,241.3685,0,U,43796,999,31040,.144E-2,.23019E-3,0
SKYSAT-C12,2018-099AR,2024-08-14T02:02:26.300832,15.32292751,.0003121,97.0160,272.7357,156.2533,203.8855,0,U,43797,999,31851,.92029E-3,.28699E-3,0
ASTROCAST 0.1,2018-099AS,2024-08-13T21:22:51.109248,15.13396878,.0010861,97.5311,289.2352,92.7072,267.5402,0,U,43798,999,31160,.13132E-2,.23465E-3,0
HAWK-C,2018-099AT,2024-08-13T21:02:36.255264,15.03840472,.0011548,97.4953,282.2776,88.7822,271.4727,0,U,43799,999,31205,.92082E-3,.12642E-3,0
ICEYE-X2,2018-099AU,2024-08-13T19:43:14.788416,15.04726854,.0015387,97.5361,283.0277,102.1950,258.1000,0,U,43800,999,31121,.11135E-2,.1569E-3,0
SKYSAT-C13,2018-099AW,2024-08-12T14:07:59.744352,15.41709383,.000461,97.0404,277.7646,104.0517,256.1244,0,U,43802,999,31813,.22969E-3,.962E-4,0
JY1SAT (JO-97),2018-099AX,2024-08-13T21:28:08.370048,15.08872921,.0011126,97.5164,284.3181,105.8409,254.4048,0,U,43803,999,31139,.13907E-2,.21928E-3,0
SUOMI-100,2018-099AY,2024-08-14T02:38:59.296992,15.07968811,.0016724,97.5236,284.3103,104.1687,256.1401,0,U,43804,999,31140,.13234E-2,.20388E-3,0
AL-FARABI 2,2018-099AZ,2024-08-13T14:12:15.912576,15.13093680,.0011356,97.5052,285.8741,97.3793,262.8729,0,U,43805,999,31151,.20777E-2,.36923E-3,0
EUCROPIS,2018-099BB,2024-08-14T03:03:35.862624,15.06035073,.0009002,97.5197,284.4479,106.2727,253.9491,0,U,43807,999,31076,.10911E-2,.15896E-3,0
POLAR SCOUT YUKON,2018-099BC,2024-08-13T17:52:38.541792,15.09257119,.0009973,97.5561,287.8539,158.8689,201.2954,0,U,43808,999,31111,.14371E-2,.22897E-3,0
CENTAURI-1,2018-099BD,2024-08-13T14:32:30.147936,15.04651839,.0019883,97.5251,282.5313,123.3496,236.9637,0,U,43809,999,31091,.12146E-2,.17119E-3,0
NEXTSAT-1,2018-099BF,2024-08-13T20:49:09.984288,15.01832708,.0017977,97.5096,280.7970,113.0519,247.2604,0,U,43811,999,31070,.70999E-3,.9243E-4,0
GLOBAL-2,2018-099BG,2024-08-13T20:38:35.802240,15.01313696,.0002572,97.4582,279.3801,253.5521,106.5422,0,U,43812,999,31074,.77407E-3,.9914E-4,0
BRIO,2018-099BH,2024-08-13T15:04:30.383616,15.18598705,.0007306,97.5629,294.8948,97.0599,263.1466,0,U,43813,999,31139,.24047E-2,.50004E-3,0
FALCONSAT-6,2018-099BK,2024-08-14T04:31:53.291136,15.12110151,.003126,97.5714,296.0651,106.2777,254.1896,0,U,43815,999,31151,.86669E-3,.15056E-3,0
SPACEBEE-7,2018-099BL,2024-08-13T22:57:40.062816,15.13844304,.001068,97.5443,290.0195,92.7784,267.4670,0,U,43816,999,31114,.17544E-2,.31801E-3,0
SPACEBEE-6,2018-099BN,2024-08-14T03:05:21.273216,15.28846967,.0007463,97.5348,296.6385,94.0533,266.1560,0,U,43818,999,31174,.29329E-2,.83019E-3,0
EXCITE,2018-099BP,2024-08-13T21:00:39.697344,15.00842388,.0019111,97.5031,279.4012,113.2059,247.1180,0,U,43819,999,31068,.66291E-3,.8406E-4,0
SEAHAWK-1,2018-099BQ,2024-08-13T14:50:50.191008,15.06311742,.0013497,97.5007,281.4708,121.1743,239.0809,0,U,43820,999,31067,.12903E-2,.18979E-3,0
GEO-KOMPSAT-2A,2018-100A,2024-08-13T08:42:42.697152,1.00272487,.0002555,0.0176,95.8448,15.3658,110.0080,0,U,43823,999,2088,0,-.333E-5,0
GSAT-11,2018-100B,2024-08-12T06:26:42.787392,1.00272737,.0007213,0.0544,270.5932,195.1878,26.1126,0,U,43824,999,2072,0,-.67E-6,0
SAUDISAT 5A,2018-102A,2024-08-13T20:28:29.523936,15.16841546,.0011488,97.4040,291.1206,345.1237,14.9657,0,U,43831,999,31333,.68519E-3,.13448E-3,0
SAUDISAT 5B,2018-102C,2024-08-13T20:48:18.497664,15.17469158,.0012356,97.4090,293.0472,348.6305,11.4648,0,U,43833,999,31342,.672E-3,.1343E-3,0
SHIELDS 1,2018-104B,2024-08-14T01:36:52.351776,15.39829788,.0009733,85.0193,243.7612,197.2792,162.8130,0,U,43850,999,31506,.64303E-3,.25624E-3,0
GSAT-7A,2018-105A,2024-08-13T21:52:10.320384,1.00271947,.0002049,0.0538,270.2234,220.1121,223.2940,0,U,43864,999,2070,0,.36E-6,0
COSMOS 2533,2018-107A,2024-08-13T18:28:54.963840,1.00271240,.0000283,0.0181,118.6998,34.9803,156.2267,0,U,43867,999,2069,0,-.28E-6,0
HONGYUN 1,2018-108A,2024-08-13T19:20:40.567776,13.50541881,.001166,99.8260,248.2008,241.7325,118.2633,0,U,43871,999,27831,.10765E-3,.25E-6,0
NAVSTAR 77 (USA 289),2018-109A,2024-08-13T22:38:48.541632,2.00558628,.0029914,55.3168,118.7462,193.1795,178.0671,0,U,43873,999,4159,0,-.18E-6,0
TJS-3,2018-110A,2024-08-13T18:58:20.487360,1.00271961,.000306,0.7978,88.4223,103.3320,228.4767,0,U,43874,999,2067,0,.11E-6,0
KANOPUS-V 5,2018-111A,2024-08-13T20:59:08.255904,15.22446027,.0002336,97.3911,133.6603,96.2390,263.9112,0,U,43876,999,31247,.43763E-3,.10061E-3,0
KANOPUS-V 6,2018-111B,2024-08-13T20:08:29.654304,15.26109712,.0002117,97.3911,134.4196,98.6311,261.5167,0,U,43877,999,31252,.46745E-3,.11995E-3,0
ISAT,2018-111D,2024-08-13T11:34:49.060128,15.12327648,.001391,97.6122,131.9585,153.6502,206.5439,0,U,43879,999,30605,.18899E-2,.32876E-3,0
UWE-4,2018-111E,2024-08-14T04:04:53.218560,15.11207689,.0017041,97.6032,132.5119,162.4382,197.7440,0,U,43880,999,30618,.16905E-2,.28517E-3,0
D-STAR ONE (SPARROW),2018-111F,2024-08-13T16:45:14.879232,15.12908099,.0009606,97.6211,134.1882,188.6308,171.4759,0,U,43881,999,30817,.17797E-2,.31416E-3,0
LEMUR-2-CHRISTINAHOLT,2018-111G,2024-08-13T17:28:36.583680,15.24187915,.0011418,97.6250,140.3748,118.1209,242.1183,0,U,43882,999,30853,.29908E-2,.73556E-3,0
LEMUR-2-TINYKEV,2018-111H,2024-08-13T19:30:16.047936,15.29055551,.0011442,97.6022,140.8874,117.8469,242.3931,0,U,43883,999,30868,.27669E-2,.78857E-3,0
LEMUR-2-REMY-COLTON,2018-111J,2024-08-13T16:09:09.654624,15.23567580,.0004722,97.6222,140.9260,117.0433,243.1286,0,U,43884,999,30659,.22989E-2,.55277E-3,0
LEMUR-2-GUSTAVO,2018-111K,2024-08-13T17:19:35.628096,15.22503948,.0014857,97.6206,139.9307,124.1167,236.1481,0,U,43885,999,30853,.22782E-2,.53211E-3,0
LEMUR-2-ZO,2018-111L,2024-08-13T19:34:21.690048,15.22229634,.0013408,97.6094,139.3727,136.8776,223.3512,0,U,43886,999,30855,.21946E-2,.50799E-3,0
LEMUR-2-NATALIEMURRAY,2018-111M,2024-08-14T04:33:43.482240,15.23042533,.0011126,97.6236,141.4848,98.1104,262.1394,0,U,43887,999,30865,.30067E-2,.71455E-3,0
LEMUR-2-SARAHBETTYBOO,2018-111N,2024-08-13T07:59:46.605120,15.24162641,.00113,97.6603,144.2135,160.8842,199.2821,0,U,43888,999,30856,.16599E-2,.40579E-3,0
LEMUR-2-DAISY-HARPER,2018-111P,2024-08-13T17:30:36.648576,15.27247676,.0010033,97.6443,144.8389,154.5360,205.6375,0,U,43889,999,30868,.24102E-2,.64857E-3,0
GRUS-1A,2018-111Q,2024-08-13T20:43:19.034400,14.96676823,.0002925,97.5457,109.1662,258.7329,101.3564,0,U,43890,999,30704,.50304E-3,.5687E-4,0
YUNHAI-2 01,2018-112A,2024-08-13T21:16:11.800416,14.28334241,.0000283,50.0126,16.9029,149.0737,211.0195,0,U,43909,999,29496,.50164E-3,.11E-4,0
YUNHAI-2 02,2018-112B,2024-08-13T21:51:26.011008,14.28390027,.0004976,50.0123,80.4123,24.3435,335.7714,0,U,43910,999,29412,.45006E-3,.972E-5,0
